start=new Date('2022-04-15T00:00:00.000Z').valueOf();
sats=[{"MEAN_ANOMALY":"286.9819","INCLINATION":"53.0550","NORAD_CAT_ID":"47603","MEAN_MOTION_DDOT":"0.0000000000000","RA_OF_ASC_NODE":"317.9038","OBJECT_NAME":"STARLINK-2008","MEAN_MOTION":"15.06427344","OBJECT_ID":"2021-009BH","LAUNCH_DATE":"2021-02-04","FILE":"3401748","TLE_LINE2":"2 47603  53.0550 317.9038 0003146  73.1515 286.9819 15.06427344 66356","ARG_OF_PERICENTER":"73.1515","SITE":"AFETR","MEAN_MOTION_DOT":"0.00012948","REF_FRAME":"TEME","GP_ID":"201231767","CENTER_NAME":"EARTH","RCS_SIZE":"LARGE","DECAY_DATE":null,"PERIAPSIS":"544.951","BSTAR":"0.00088584000000","COUNTRY_CODE":"US","REV_AT_EPOCH":"6635","TLE_LINE1":"1 47603U 21009BH  22104.86503337  .00012948  00000-0  88584-3 0  9996","ECCENTRICITY":"0.00031460","ELEMENT_SET_NO":"999","TIME_SYSTEM":"UTC","PERIOD":"95.590","EPHEMERIS_TYPE":"0","CLASSIFICATION_TYPE":"U","SEMIMAJOR_AXIS":"6925.265","MEAN_ELEMENT_THEORY":"SGP4","APOAPSIS":"549.308","EPOCH":"2022-04-14T20:45:38.883168","OBJECT_TYPE":"PAYLOAD"},{"LAUNCH_DATE":"2021-02-04","SITE":"AFETR","ARG_OF_PERICENTER":"58.4106","TLE_LINE2":"2 47604  53.0538 288.2209 0001720  58.4106 301.7051 15.06416676 66777","FILE":"3401748","REF_FRAME":"TEME","MEAN_MOTION_DOT":"0.00006458","RCS_SIZE":"LARGE","CENTER_NAME":"EARTH","GP_ID":"201231768","MEAN_ANOMALY":"301.7051","MEAN_MOTION_DDOT":"0.0000000000000","NORAD_CAT_ID":"47604","INCLINATION":"53.0538","MEAN_MOTION":"15.06416676","OBJECT_NAME":"STARLINK-2021","RA_OF_ASC_NODE":"288.2209","OBJECT_ID":"2021-009BJ","CLASSIFICATION_TYPE":"U","APOAPSIS":"548.354","MEAN_ELEMENT_THEORY":"SGP4","SEMIMAJOR_AXIS":"6925.297","OBJECT_TYPE":"PAYLOAD","EPOCH":"2022-04-14T19:03:28.275264","PERIAPSIS":"545.971","DECAY_DATE":null,"TLE_LINE1":"1 47604U 21009BJ  22104.79407726  .00006458  00000-0  45184-3 0  9992","BSTAR":"0.00045184000000","COUNTRY_CODE":"US","REV_AT_EPOCH":"6677","ELEMENT_SET_NO":"999","ECCENTRICITY":"0.00017200","EPHEMERIS_TYPE":"0","PERIOD":"95.591","TIME_SYSTEM":"UTC"},{"OBJECT_ID":"2021-009BK","OBJECT_NAME":"STARLINK-2023","MEAN_MOTION":"15.75273970","RA_OF_ASC_NODE":"236.6298","INCLINATION":"53.0507","NORAD_CAT_ID":"47605","MEAN_MOTION_DDOT":"0.0000000000000","MEAN_ANOMALY":"23.9433","GP_ID":"201255596","CENTER_NAME":"EARTH","RCS_SIZE":"LARGE","MEAN_MOTION_DOT":"0.00131444","REF_FRAME":"TEME","FILE":"3401977","TLE_LINE2":"2 47605  53.0507 236.6298 0003295 336.1433  23.9433 15.75273970 66879","ARG_OF_PERICENTER":"336.1433","SITE":"AFETR","LAUNCH_DATE":"2021-02-04","TIME_SYSTEM":"UTC","PERIOD":"91.413","EPHEMERIS_TYPE":"0","ECCENTRICITY":"0.00032950","ELEMENT_SET_NO":"999","BSTAR":"0.00084683000000","COUNTRY_CODE":"US","REV_AT_EPOCH":"6687","TLE_LINE1":"1 47605U 21009BK  22104.62271660  .00131444  00000-0  84683-3 0  9992","DECAY_DATE":null,"PERIAPSIS":"341.639","EPOCH":"2022-04-14T14:56:42.714240","OBJECT_TYPE":"PAYLOAD","SEMIMAJOR_AXIS":"6721.989","MEAN_ELEMENT_THEORY":"SGP4","APOAPSIS":"346.069","CLASSIFICATION_TYPE":"U"},{"EPOCH":"2022-04-14T19:08:47.550048","OBJECT_TYPE":"PAYLOAD","MEAN_ELEMENT_THEORY":"SGP4","APOAPSIS":"548.226","SEMIMAJOR_AXIS":"6925.316","CLASSIFICATION_TYPE":"U","EPHEMERIS_TYPE":"0","TIME_SYSTEM":"UTC","PERIOD":"95.591","ECCENTRICITY":"0.00015090","ELEMENT_SET_NO":"999","BSTAR":"0.00041382000000","COUNTRY_CODE":"US","REV_AT_EPOCH":"6617","TLE_LINE1":"1 47606U 21009BL  22104.79777257  .00005889  00000-0  41382-3 0  9996","PERIAPSIS":"546.136","DECAY_DATE":null,"RCS_SIZE":"LARGE","CENTER_NAME":"EARTH","GP_ID":"201255846","REF_FRAME":"TEME","MEAN_MOTION_DOT":"0.00005889","TLE_LINE2":"2 47606  53.0542 288.2170 0001509  65.9593 294.1553 15.06410591 66175","ARG_OF_PERICENTER":"65.9593","SITE":"AFETR","FILE":"3401977","LAUNCH_DATE":"2021-02-04","OBJECT_ID":"2021-009BL","OBJECT_NAME":"STARLINK-2024","MEAN_MOTION":"15.06410591","RA_OF_ASC_NODE":"288.2170","MEAN_MOTION_DDOT":"0.0000000000000","INCLINATION":"53.0542","NORAD_CAT_ID":"47606","MEAN_ANOMALY":"294.1553"},{"MEAN_ELEMENT_THEORY":"SGP4","APOAPSIS":"548.586","SEMIMAJOR_AXIS":"6925.356","CLASSIFICATION_TYPE":"U","EPOCH":"2022-04-14T18:36:55.829088","OBJECT_TYPE":"PAYLOAD","COUNTRY_CODE":"US","BSTAR":"0.00005808400000","REV_AT_EPOCH":"6616","TLE_LINE1":"1 47607U 21009BM  22104.77564617  .00000584  00000-0  58084-4 0  9994","PERIAPSIS":"545.856","DECAY_DATE":null,"EPHEMERIS_TYPE":"0","TIME_SYSTEM":"UTC","PERIOD":"95.592","ECCENTRICITY":"0.00019710","ELEMENT_SET_NO":"999","ARG_OF_PERICENTER":"50.6249","TLE_LINE2":"2 47607  53.0548 288.3048 0001971  50.6249 309.4914 15.06397623 66169","SITE":"AFETR","FILE":"3401977","LAUNCH_DATE":"2021-02-04","RCS_SIZE":"LARGE","GP_ID":"201257092","CENTER_NAME":"EARTH","REF_FRAME":"TEME","MEAN_MOTION_DOT":"0.00000584","MEAN_MOTION_DDOT":"0.0000000000000","INCLINATION":"53.0548","NORAD_CAT_ID":"47607","MEAN_ANOMALY":"309.4914","OBJECT_ID":"2021-009BM","RA_OF_ASC_NODE":"288.3048","OBJECT_NAME":"STARLINK-2025","MEAN_MOTION":"15.06397623"},{"TLE_LINE1":"1 47620U 21012A   22104.92493322  .00015067  00000-0  10279-2 0  9998","REV_AT_EPOCH":"6523","COUNTRY_CODE":"US","BSTAR":"0.00102790000000","PERIAPSIS":"546.160","DECAY_DATE":null,"EPHEMERIS_TYPE":"0","PERIOD":"95.591","TIME_SYSTEM":"UTC","ECCENTRICITY":"0.00014660","ELEMENT_SET_NO":"999","APOAPSIS":"548.191","MEAN_ELEMENT_THEORY":"SGP4","SEMIMAJOR_AXIS":"6925.310","CLASSIFICATION_TYPE":"U","OBJECT_TYPE":"PAYLOAD","EPOCH":"2022-04-14T22:11:54.230208","MEAN_MOTION_DDOT":"0.0000000000000","NORAD_CAT_ID":"47620","INCLINATION":"53.0547","MEAN_ANOMALY":"299.2680","OBJECT_ID":"2021-012A","RA_OF_ASC_NODE":"347.6353","OBJECT_NAME":"STARLINK-1528","MEAN_MOTION":"15.06412497","SITE":"AFETR","ARG_OF_PERICENTER":"60.8455","TLE_LINE2":"2 47620  53.0547 347.6353 0001466  60.8455 299.2680 15.06412497 65232","FILE":"3401977","LAUNCH_DATE":"2021-02-16","RCS_SIZE":"LARGE","CENTER_NAME":"EARTH","GP_ID":"201255597","REF_FRAME":"TEME","MEAN_MOTION_DOT":"0.00015067"},{"LAUNCH_DATE":"2021-02-16","TLE_LINE2":"2 47621  53.0546 350.0621 0001676  58.5476 301.5677 15.06410199 65160","ARG_OF_PERICENTER":"58.5476","SITE":"AFETR","FILE":"3401567","REF_FRAME":"TEME","MEAN_MOTION_DOT":"0.00005310","RCS_SIZE":"LARGE","GP_ID":"201223108","CENTER_NAME":"EARTH","MEAN_ANOMALY":"301.5677","MEAN_MOTION_DDOT":"0.0000000000000","INCLINATION":"53.0546","NORAD_CAT_ID":"47621","OBJECT_NAME":"STARLINK-1609","RA_OF_ASC_NODE":"350.0621","MEAN_MOTION":"15.06410199","OBJECT_ID":"2021-012B","CLASSIFICATION_TYPE":"U","APOAPSIS":"548.343","MEAN_ELEMENT_THEORY":"SGP4","SEMIMAJOR_AXIS":"6925.317","EPOCH":"2022-04-14T09:16:57.798912","OBJECT_TYPE":"PAYLOAD","PERIAPSIS":"546.022","DECAY_DATE":null,"REV_AT_EPOCH":"6516","COUNTRY_CODE":"US","BSTAR":"0.00037498000000","TLE_LINE1":"1 47621U 21012B   22104.38678008  .00005310  00000-0  37498-3 0  9998","ELEMENT_SET_NO":"999","ECCENTRICITY":"0.00016760","EPHEMERIS_TYPE":"0","TIME_SYSTEM":"UTC","PERIOD":"95.591"},{"MEAN_MOTION_DOT":"0.00001666","REF_FRAME":"TEME","CENTER_NAME":"EARTH","GP_ID":"201223860","RCS_SIZE":"LARGE","LAUNCH_DATE":"2021-02-16","FILE":"3401567","SITE":"AFETR","ARG_OF_PERICENTER":"64.6410","TLE_LINE2":"2 47622  53.0563 350.0650 0001427  64.6410 295.4726 15.06402277 65155","OBJECT_NAME":"STARLINK-1645","MEAN_MOTION":"15.06402277","RA_OF_ASC_NODE":"350.0650","OBJECT_ID":"2021-012C","MEAN_ANOMALY":"295.4726","NORAD_CAT_ID":"47622","INCLINATION":"53.0563","MEAN_MOTION_DDOT":"0.0000000000000","OBJECT_TYPE":"PAYLOAD","EPOCH":"2022-04-14T09:11:38.787648","CLASSIFICATION_TYPE":"U","SEMIMAJOR_AXIS":"6925.342","APOAPSIS":"548.195","MEAN_ELEMENT_THEORY":"SGP4","ELEMENT_SET_NO":"999","ECCENTRICITY":"0.00014270","PERIOD":"95.592","TIME_SYSTEM":"UTC","EPHEMERIS_TYPE":"0","DECAY_DATE":null,"PERIAPSIS":"546.218","TLE_LINE1":"1 47622U 21012C   22104.38308782  .00001666  00000-0  13071-3 0  9999","COUNTRY_CODE":"US","BSTAR":"0.00013071000000","REV_AT_EPOCH":"6515"},{"EPHEMERIS_TYPE":"0","TIME_SYSTEM":"UTC","PERIOD":"95.592","ELEMENT_SET_NO":"999","ECCENTRICITY":"0.00017060","COUNTRY_CODE":"US","BSTAR":"0.00022179000000","REV_AT_EPOCH":"6613","TLE_LINE1":"1 47623U 21012D   22104.79269718  .00003023  00000-0  22179-3 0  9998","PERIAPSIS":"546.041","DECAY_DATE":null,"EPOCH":"2022-04-14T19:01:29.036352","OBJECT_TYPE":"PAYLOAD","APOAPSIS":"548.404","MEAN_ELEMENT_THEORY":"SGP4","SEMIMAJOR_AXIS":"6925.357","CLASSIFICATION_TYPE":"U","OBJECT_ID":"2021-012D","MEAN_MOTION":"15.06397170","OBJECT_NAME":"STARLINK-1655","RA_OF_ASC_NODE":"283.2352","MEAN_MOTION_DDOT":"0.0000000000000","INCLINATION":"53.0564","NORAD_CAT_ID":"47623","MEAN_ANOMALY":"299.3795","RCS_SIZE":"LARGE","CENTER_NAME":"EARTH","GP_ID":"201256849","REF_FRAME":"TEME","MEAN_MOTION_DOT":"0.00003023","TLE_LINE2":"2 47623  53.0564 283.2352 0001706  60.7364 299.3795 15.06397170 66131","ARG_OF_PERICENTER":"60.7364","SITE":"AFETR","FILE":"3401977","LAUNCH_DATE":"2021-02-16"},{"EPHEMERIS_TYPE":"0","PERIOD":"95.592","TIME_SYSTEM":"UTC","ECCENTRICITY":"0.00016040","ELEMENT_SET_NO":"999","TLE_LINE1":"1 47624U 21012E   22104.91940611 -.00000946  00000-0 -44603-4 0  9991","BSTAR":"-0.00004460300000","COUNTRY_CODE":"US","REV_AT_EPOCH":"6553","PERIAPSIS":"546.119","DECAY_DATE":null,"OBJECT_TYPE":"PAYLOAD","EPOCH":"2022-04-14T22:03:56.687904","APOAPSIS":"548.341","MEAN_ELEMENT_THEORY":"SGP4","SEMIMAJOR_AXIS":"6925.365","CLASSIFICATION_TYPE":"U","OBJECT_ID":"2021-012E","OBJECT_NAME":"STARLINK-1669","RA_OF_ASC_NODE":"327.6708","MEAN_MOTION":"15.06394646","MEAN_MOTION_DDOT":"0.0000000000000","NORAD_CAT_ID":"47624","INCLINATION":"53.0584","MEAN_ANOMALY":"268.9107","RCS_SIZE":"LARGE","CENTER_NAME":"EARTH","GP_ID":"201256092","REF_FRAME":"TEME","MEAN_MOTION_DOT":"-0.00000946","SITE":"AFETR","TLE_LINE2":"2 47624  53.0584 327.6708 0001604  91.2066 268.9107 15.06394646 65534","ARG_OF_PERICENTER":"91.2066","FILE":"3401977","LAUNCH_DATE":"2021-02-16"}];
